{"fetched_at":"2026-07-18T06:28:38.347Z","source":"https://celestrak.org/NORAD/elements/gp.php?NAME=YAM&FORMAT=JSON","constellation":"earthdaily-constellation","records":[{"OBJECT_NAME":"YAM-10","OBJECT_ID":"2025-135BE","EPOCH":"2026-07-17T20:44:20.337792","CLASSIFICATION_TYPE":"U","MEAN_MOTION":14.91906189,"ECCENTRICITY":0.00019001,"INCLINATION":97.7754,"RA_OF_ASC_NODE":312.2953,"ARG_OF_PERICENTER":231.9256,"MEAN_ANOMALY":128.1791,"EPHEMERIS_TYPE":0,"NORAD_CAT_ID":64580,"ELEMENT_SET_NO":999,"REV_AT_EPOCH":5843,"BSTAR":0.00010768832,"MEAN_MOTION_DOT":0.00001033,"MEAN_MOTION_DDOT":0},{"OBJECT_NAME":"YAM-11","OBJECT_ID":"2026-100M","EPOCH":"2026-07-17T15:58:15.718944","CLASSIFICATION_TYPE":"U","MEAN_MOTION":14.90587716,"ECCENTRICITY":0.00100475,"INCLINATION":97.7428,"RA_OF_ASC_NODE":95.395,"ARG_OF_PERICENTER":355.7516,"MEAN_ANOMALY":4.3615,"EPHEMERIS_TYPE":0,"NORAD_CAT_ID":68991,"ELEMENT_SET_NO":999,"REV_AT_EPOCH":1123,"BSTAR":0.00008273134,"MEAN_MOTION_DOT":0.00000755,"MEAN_MOTION_DDOT":0},{"OBJECT_NAME":"YAM-16","OBJECT_ID":"2026-100N","EPOCH":"2026-07-17T16:14:30.743808","CLASSIFICATION_TYPE":"U","MEAN_MOTION":14.91519098,"ECCENTRICITY":0.00046186,"INCLINATION":97.7332,"RA_OF_ASC_NODE":95.5302,"ARG_OF_PERICENTER":56.5679,"MEAN_ANOMALY":303.5981,"EPHEMERIS_TYPE":0,"NORAD_CAT_ID":68992,"ELEMENT_SET_NO":999,"REV_AT_EPOCH":1124,"BSTAR":0.00007666929,"MEAN_MOTION_DOT":0.00000713,"MEAN_MOTION_DDOT":0},{"OBJECT_NAME":"YAM-13","OBJECT_ID":"2026-100P","EPOCH":"2026-07-17T03:37:39.836064","CLASSIFICATION_TYPE":"U","MEAN_MOTION":14.90416701,"ECCENTRICITY":0.0009404,"INCLINATION":97.7436,"RA_OF_ASC_NODE":94.9913,"ARG_OF_PERICENTER":351.5241,"MEAN_ANOMALY":8.5817,"EPHEMERIS_TYPE":0,"NORAD_CAT_ID":68993,"ELEMENT_SET_NO":999,"REV_AT_EPOCH":1116,"BSTAR":0.000068690293,"MEAN_MOTION_DOT":0.00000614,"MEAN_MOTION_DDOT":0},{"OBJECT_NAME":"YAM-15","OBJECT_ID":"2026-100T","EPOCH":"2026-07-17T11:21:05.199840","CLASSIFICATION_TYPE":"U","MEAN_MOTION":14.90656203,"ECCENTRICITY":0.0009163,"INCLINATION":97.7325,"RA_OF_ASC_NODE":95.3294,"ARG_OF_PERICENTER":4.9689,"MEAN_ANOMALY":355.1619,"EPHEMERIS_TYPE":0,"NORAD_CAT_ID":68997,"ELEMENT_SET_NO":999,"REV_AT_EPOCH":1121,"BSTAR":0.000074992,"MEAN_MOTION_DOT":0.0000068,"MEAN_MOTION_DDOT":0},{"OBJECT_NAME":"YAM-12","OBJECT_ID":"2026-100Z","EPOCH":"2026-07-17T23:37:42.890016","CLASSIFICATION_TYPE":"U","MEAN_MOTION":14.9045833,"ECCENTRICITY":0.00096239,"INCLINATION":97.7511,"RA_OF_ASC_NODE":95.7191,"ARG_OF_PERICENTER":340.8275,"MEAN_ANOMALY":19.2579,"EPHEMERIS_TYPE":0,"NORAD_CAT_ID":69003,"ELEMENT_SET_NO":999,"REV_AT_EPOCH":1127,"BSTAR":0.00023616654,"MEAN_MOTION_DOT":0.0000225,"MEAN_MOTION_DDOT":0},{"OBJECT_NAME":"YAM-14","OBJECT_ID":"2026-100AE","EPOCH":"2026-07-17T10:34:21.220032","CLASSIFICATION_TYPE":"U","MEAN_MOTION":14.90352469,"ECCENTRICITY":0.0006074,"INCLINATION":97.7398,"RA_OF_ASC_NODE":95.2066,"ARG_OF_PERICENTER":26.4175,"MEAN_ANOMALY":333.7352,"EPHEMERIS_TYPE":0,"NORAD_CAT_ID":69008,"ELEMENT_SET_NO":999,"REV_AT_EPOCH":1119,"BSTAR":0.000072198,"MEAN_MOTION_DOT":0.00000648,"MEAN_MOTION_DDOT":0}]}
