YAM-10                  
1 64580U 25135BE  26198.86412428  .00001033  00000+0  10769-3 0  9992
2 64580  97.7754 312.2953 0001900 231.9256 128.1791 14.91906189 58434
YAM-11                  
1 68991U 26100M   26198.66545971  .00000755  00000+0  82731-4 0  9992
2 68991  97.7428  95.3950 0010047 355.7516   4.3615 14.90587716 11231
YAM-16                  
1 68992U 26100N   26198.67674472  .00000713  00000+0  76669-4 0  9990
2 68992  97.7332  95.5302 0004618  56.5679 303.5981 14.91519098 11242
YAM-13                  
1 68993U 26100P   26198.15115551  .00000614  00000+0  68690-4 0  9997
2 68993  97.7436  94.9913 0009404 351.5241   8.5817 14.90416701 11167
YAM-15                  
1 68997U 26100T   26198.47297685  .00000680  00000+0  74992-4 0  9990
2 68997  97.7325  95.3294 0009163   4.9689 355.1619 14.90656203 11212
YAM-12                  
1 69003U 26100Z   26198.98452419  .00002250  00000+0  23617-3 0  9995
2 69003  97.7511  95.7191 0009623 340.8275  19.2579 14.90458330 11272
YAM-14                  
1 69008U 26100AE  26198.44052338  .00000648  00000+0  72198-4 0  9995
2 69008  97.7398  95.2066 0006074  26.4175 333.7352 14.90352469 11199
